STARLINK-36855          
1 68121U 26044W   26082.16668981 -.00001907  00000+0 -11946-4 0  9990
2 68121  97.2841  43.0050 0001487 109.5060 258.3450 15.75135317  3518
STARLINK-36366          
1 68122U 26044X   26082.16668981  .00031932  00000+0  21488-3 0  9991
2 68122  97.2839  43.0059 0001271  86.2517 283.6145 15.75111971  3561
STARLINK-36922          
1 68123U 26044Y   26082.16668981 -.00182694  00000+0 -12486-2 0  9993
2 68123  97.2839  43.0113 0001514 118.0788 265.7504 15.75220184  3564
STARLINK-36938          
1 68124U 26044Z   26082.16668981  .00102292  00000+0  53114-3 0  9992
2 68124  97.2838  43.0260 0001518  93.6876 323.8593 15.80708117  3564
STARLINK-36839          
1 68125U 26044AA  26082.16668981 -.00158742  00000+0 -10823-2 0  9995
2 68125  97.2839  43.0087 0001425 107.0113 270.8223 15.75209575  3518
ECHOSTAR 25             
1 68126U 26045A   26078.10297356 -.00000047  00000+0  00000+0 0  9996
2 68126  10.0329  67.2654 4749424 180.7440 178.4031  1.79885153   199
ICOR SV                 
1 68127U 26046A   26072.90953491  .00482503  92133-4  10434-2 0  9997
2 68127 123.0797 224.1306 0140888 188.2572 171.6170 15.82606913   290
FIREFLY ALPHA R/B       
1 68128U 26046B   26082.25300412  .00045861  00000+0  62962-3 0  9999
2 68128 123.0936 264.9146 0015067   7.3313 352.7965 15.56787191  1759
GUOWANG GROUP 20 OBJECT*
1 68129U 26047A   26081.54515819 -.00000105  00000+0  29488-4 0  9991
2 68129  50.0053  18.0627 0004088 294.0185  66.0290 14.02072847  1373
GUOWANG GROUP 20 OBJECT*
1 68130U 26047B   26081.54392706 -.00000066  00000+0  55300-4 0  9999
2 68130  50.0054  18.0527 0002362 288.5351  71.5296 14.02358693  1363
GUOWANG GROUP 20 OBJECT*
1 68131U 26047C   26081.54289908 -.00000109  00000+0  26991-4 0  9991
2 68131  50.0022  18.0458 0003308 293.7898  66.2659 14.02708744  1378
GUOWANG GROUP 20 OBJECT*
1 68132U 26047D   26078.12556338 -.00000146  00000+0  36920-5 0  9991
2 68132  50.0078  31.9684 0008434 289.4802  70.5192 14.05881519   887
